{
  "type": "FeatureCollection",
  "features": [
    {
      "type": "Feature",
      "properties": {
        "norad_id": 43602,
        "name": "BEIDOU-3 M12 (C26)",
        "group": "beidou",
        "lat": 22.623573408520805,
        "lon": -10.3965194326031,
        "alt_km": 21534.654974263998,
        "timestamp": "2025-12-19T18:58:41.853414+00:00",
        "meta_object_name": "BEIDOU-3 M12 (C26)",
        "meta_object_id": "2018-067A",
        "meta_epoch": "2025-12-17T22:53:45.555072",
        "meta_mean_motion": 1.86227791,
        "meta_eccentricity": 0.00092249,
        "meta_inclination": 54.1833,
        "meta_ra_of_asc_node": 187.186,
        "meta_arg_of_pericenter": 41.0055,
        "meta_mean_anomaly": 319.1284,
        "meta_ephemeris_type": 0,
        "meta_classification_type": "U",
        "meta_norad_cat_id": 43602,
        "meta_element_set_no": 999,
        "meta_rev_at_epoch": 4974,
        "meta_bstar": 0,
        "meta_mean_motion_dot": 1.1e-06,
        "meta_mean_motion_ddot": 0,
        "tle_line1": "1 43602U 18067A   25351.95399948  .00000110  00000+0  00000+0 0  9999",
        "tle_line2": "2 43602  54.1833 187.1860 0009224  41.0055 319.1284  1.86227791 49749"
      },
      "geometry": {
        "type": "Point",
        "coordinates": [
          -10.3965194326031,
          22.623573408520805
        ]
      }
    },
    {
      "type": "Feature",
      "properties": {
        "norad_id": 43603,
        "name": "BEIDOU-3 M11 (C25)",
        "group": "beidou",
        "lat": 45.33205247404242,
        "lon": -125.92937269071707,
        "alt_km": 21508.701055893845,
        "timestamp": "2025-12-19T18:58:41.853425+00:00",
        "meta_object_name": "BEIDOU-3 M11 (C25)",
        "meta_object_id": "2018-067B",
        "meta_epoch": "2025-12-18T02:07:28.250688",
        "meta_mean_motion": 1.86227303,
        "meta_eccentricity": 0.00056103,
        "meta_inclination": 54.1805,
        "meta_ra_of_asc_node": 187.1455,
        "meta_arg_of_pericenter": 36.7465,
        "meta_mean_anomaly": 323.3559,
        "meta_ephemeris_type": 0,
        "meta_classification_type": "U",
        "meta_norad_cat_id": 43603,
        "meta_element_set_no": 999,
        "meta_rev_at_epoch": 4977,
        "meta_bstar": 0,
        "meta_mean_motion_dot": 1.09e-06,
        "meta_mean_motion_ddot": 0,
        "tle_line1": "1 43603U 18067B   25352.08852142  .00000109  00000+0  00000+0 0  9993",
        "tle_line2": "2 43603  54.1805 187.1455 0005610  36.7465 323.3559  1.86227303 49774"
      },
      "geometry": {
        "type": "Point",
        "coordinates": [
          -125.92937269071707,
          45.33205247404242
        ]
      }
    },
    {
      "type": "Feature",
      "properties": {
        "norad_id": 43622,
        "name": "BEIDOU-3 M13 (C32)",
        "group": "beidou",
        "lat": 56.48656186156846,
        "lon": 159.41626923773563,
        "alt_km": 21536.473393317534,
        "timestamp": "2025-12-19T18:58:41.853437+00:00",
        "meta_object_name": "BEIDOU-3 M13 (C32)",
        "meta_object_id": "2018-072A",
        "meta_epoch": "2025-12-19T02:51:12.147840",
        "meta_mean_motion": 1.86231103,
        "meta_eccentricity": 0.00060832,
        "meta_inclination": 56.4647,
        "meta_ra_of_asc_node": 68.6089,
        "meta_arg_of_pericenter": 298.8589,
        "meta_mean_anomaly": 61.1145,
        "meta_ephemeris_type": 0,
        "meta_classification_type": "U",
        "meta_norad_cat_id": 43622,
        "meta_element_set_no": 999,
        "meta_rev_at_epoch": 4930,
        "meta_bstar": 0,
        "meta_mean_motion_dot": -5.6e-07,
        "meta_mean_motion_ddot": 0,
        "tle_line1": "1 43622U 18072A   25353.11889060 -.00000056  00000+0  00000+0 0  9996",
        "tle_line2": "2 43622  56.4647  68.6089 0006083 298.8589  61.1145  1.86231103 49303"
      },
      "geometry": {
        "type": "Point",
        "coordinates": [
          159.41626923773563,
          56.48656186156846
        ]
      }
    },
    {
      "type": "Feature",
      "properties": {
        "norad_id": 43623,
        "name": "BEIDOU-3 M14 (C33)",
        "group": "beidou",
        "lat": -0.5508958340083311,
        "lon": -111.03821113935167,
        "alt_km": 21536.681333188768,
        "timestamp": "2025-12-19T18:58:41.853448+00:00",
        "meta_object_name": "BEIDOU-3 M14 (C33)",
        "meta_object_id": "2018-072B",
        "meta_epoch": "2025-12-18T10:44:15.262368",
        "meta_mean_motion": 1.8623104,
        "meta_eccentricity": 0.00033898,
        "meta_inclination": 56.4661,
        "meta_ra_of_asc_node": 68.625,
        "meta_arg_of_pericenter": 331.3053,
        "meta_mean_anomaly": 28.7068,
        "meta_ephemeris_type": 0,
        "meta_classification_type": "U",
        "meta_norad_cat_id": 43623,
        "meta_element_set_no": 999,
        "meta_rev_at_epoch": 4928,
        "meta_bstar": 0,
        "meta_mean_motion_dot": -6.3e-07,
        "meta_mean_motion_ddot": 0,
        "tle_line1": "1 43623U 18072B   25352.44739887 -.00000063  00000+0  00000+0 0  9991",
        "tle_line2": "2 43623  56.4661  68.6250 0003389 331.3053  28.7068  1.86231040 49285"
      },
      "geometry": {
        "type": "Point",
        "coordinates": [
          -111.03821113935167,
          -0.5508958340083311
        ]
      }
    },
    {
      "type": "Feature",
      "properties": {
        "norad_id": 43647,
        "name": "BEIDOU-3 M16 (C35)",
        "group": "beidou",
        "lat": 51.641468468580634,
        "lon": 11.638969049464128,
        "alt_km": 21510.180172019227,
        "timestamp": "2025-12-19T18:58:41.853460+00:00",
        "meta_object_name": "BEIDOU-3 M16 (C35)",
        "meta_object_id": "2018-078A",
        "meta_epoch": "2025-12-18T14:31:23.928384",
        "meta_mean_motion": 1.86232416,
        "meta_eccentricity": 0.00073312,
        "meta_inclination": 54.2565,
        "meta_ra_of_asc_node": 306.3163,
        "meta_arg_of_pericenter": 19.8035,
        "meta_mean_anomaly": 340.2135,
        "meta_ephemeris_type": 0,
        "meta_classification_type": "U",
        "meta_norad_cat_id": 43647,
        "meta_element_set_no": 999,
        "meta_rev_at_epoch": 4879,
        "meta_bstar": 0,
        "meta_mean_motion_dot": -8.1e-07,
        "meta_mean_motion_ddot": 0,
        "tle_line1": "1 43647U 18078A   25352.60513806 -.00000081  00000+0  00000+0 0  9992",
        "tle_line2": "2 43647  54.2565 306.3163 0007331  19.8035 340.2135  1.86232416 48794"
      },
      "geometry": {
        "type": "Point",
        "coordinates": [
          11.638969049464128,
          51.641468468580634
        ]
      }
    },
    {
      "type": "Feature",
      "properties": {
        "norad_id": 43648,
        "name": "BEIDOU-3 M15 (C34)",
        "group": "beidou",
        "lat": -9.50779013601578,
        "lon": -60.67172374238619,
        "alt_km": 21520.040699073892,
        "timestamp": "2025-12-19T18:58:41.853471+00:00",
        "meta_object_name": "BEIDOU-3 M15 (C34)",
        "meta_object_id": "2018-078B",
        "meta_epoch": "2025-12-18T04:44:16.550592",
        "meta_mean_motion": 1.86232281,
        "meta_eccentricity": 0.00039569,
        "meta_inclination": 54.2524,
        "meta_ra_of_asc_node": 306.3307,
        "meta_arg_of_pericenter": 20.2527,
        "meta_mean_anomaly": 339.7508,
        "meta_ephemeris_type": 0,
        "meta_classification_type": "U",
        "meta_norad_cat_id": 43648,
        "meta_element_set_no": 999,
        "meta_rev_at_epoch": 4880,
        "meta_bstar": 0,
        "meta_mean_motion_dot": -8.5e-07,
        "meta_mean_motion_ddot": 0,
        "tle_line1": "1 43648U 18078B   25352.19741378 -.00000085  00000+0  00000+0 0  9998",
        "tle_line2": "2 43648  54.2524 306.3307 0003956  20.2527 339.7508  1.86232281 48800"
      },
      "geometry": {
        "type": "Point",
        "coordinates": [
          -60.67172374238619,
          -9.50779013601578
        ]
      }
    },
    {
      "type": "Feature",
      "properties": {
        "norad_id": 43683,
        "name": "BEIDOU-3 G1 (C59)",
        "group": "beidou",
        "lat": 2.038760800088699,
        "lon": 153.30082249553894,
        "alt_km": 35779.87549375044,
        "timestamp": "2025-12-19T18:58:41.853483+00:00",
        "meta_object_name": "BEIDOU-3 G1 (C59)",
        "meta_object_id": "2018-085A",
        "meta_epoch": "2025-12-19T07:04:55.947936",
        "meta_mean_motion": 1.00268946,
        "meta_eccentricity": 0.00016197,
        "meta_inclination": 2.6236,
        "meta_ra_of_asc_node": 102.7738,
        "meta_arg_of_pericenter": 47.741,
        "meta_mean_anomaly": 183.8957,
        "meta_ephemeris_type": 0,
        "meta_classification_type": "U",
        "meta_norad_cat_id": 43683,
        "meta_element_set_no": 999,
        "meta_rev_at_epoch": 2625,
        "meta_bstar": 0,
        "meta_mean_motion_dot": -2.55e-06,
        "meta_mean_motion_ddot": 0,
        "tle_line1": "1 43683U 18085A   25353.29509199 -.00000255  00000+0  00000+0 0  9999",
        "tle_line2": "2 43683   2.6236 102.7738 0001619  47.7410 183.8957  1.00268946 26255"
      },
      "geometry": {
        "type": "Point",
        "coordinates": [
          153.30082249553894,
          2.038760800088699
        ]
      }
    }
  ]
}